{
  "type": "FeatureCollection",
  "features": [
    {
      "type": "Feature",
      "properties": {
        "norad_id": 30013,
        "name": "FENGYUN 1C DEB",
        "group": "fengyun-1c-debris",
        "lat": -77.4920610775954,
        "lon": 138.57353735539957,
        "alt_km": 1011.4600245021484,
        "timestamp": "2025-12-14T16:47:40.956795+00:00",
        "meta_object_name": "FENGYUN 1C DEB",
        "meta_object_id": "1999-025MN",
        "meta_epoch": "2025-12-14T00:15:39.821184",
        "meta_mean_motion": 13.87826126,
        "meta_eccentricity": 0.01281769,
        "meta_inclination": 99.5802,
        "meta_ra_of_asc_node": 7.4457,
        "meta_arg_of_pericenter": 40.6552,
        "meta_mean_anomaly": 22.2209,
        "meta_ephemeris_type": 0,
        "meta_classification_type": "U",
        "meta_norad_cat_id": 30013,
        "meta_element_set_no": 999,
        "meta_rev_at_epoch": 95699,
        "meta_bstar": 0.00031925582,
        "meta_mean_motion_dot": 3.58e-06,
        "meta_mean_motion_ddot": 0,
        "tle_line1": "1 30013U 99025MN  25348.01087756  .00000358  00000+0  31926-3 0  9997",
        "tle_line2": "2 30013  99.5802   7.4457 0128176  40.6552  22.2209 13.87826126956995"
      },
      "geometry": {
        "type": "Point",
        "coordinates": [
          138.57353735539957,
          -77.4920610775954
        ]
      }
    },
    {
      "type": "Feature",
      "properties": {
        "norad_id": 30015,
        "name": "FENGYUN 1C DEB",
        "group": "fengyun-1c-debris",
        "lat": 58.11508907173754,
        "lon": -23.450079980607093,
        "alt_km": 769.4449442588739,
        "timestamp": "2025-12-14T16:47:40.956805+00:00",
        "meta_object_name": "FENGYUN 1C DEB",
        "meta_object_id": "1999-025MQ",
        "meta_epoch": "2025-12-14T00:01:13.624032",
        "meta_mean_motion": 14.3080423,
        "meta_eccentricity": 0.00385792,
        "meta_inclination": 99.2288,
        "meta_ra_of_asc_node": 350.9591,
        "meta_arg_of_pericenter": 121.3428,
        "meta_mean_anomaly": 300.3515,
        "meta_ephemeris_type": 0,
        "meta_classification_type": "U",
        "meta_norad_cat_id": 30015,
        "meta_element_set_no": 999,
        "meta_rev_at_epoch": 98191,
        "meta_bstar": 0.00072322636,
        "meta_mean_motion_dot": 1.862e-05,
        "meta_mean_motion_ddot": 0,
        "tle_line1": "1 30015U 99025MQ  25348.00085213  .00001862  00000+0  72323-3 0  9991",
        "tle_line2": "2 30015  99.2288 350.9591 0038579 121.3428 300.3515 14.30804230981914"
      },
      "geometry": {
        "type": "Point",
        "coordinates": [
          -23.450079980607093,
          58.11508907173754
        ]
      }
    },
    {
      "type": "Feature",
      "properties": {
        "norad_id": 30016,
        "name": "FENGYUN 1C DEB",
        "group": "fengyun-1c-debris",
        "lat": 15.443097943743107,
        "lon": -176.64660342884392,
        "alt_km": 655.2564172145649,
        "timestamp": "2025-12-14T16:47:40.956815+00:00",
        "meta_object_name": "FENGYUN 1C DEB",
        "meta_object_id": "1999-025MR",
        "meta_epoch": "2025-12-14T00:03:21.422592",
        "meta_mean_motion": 14.78560204,
        "meta_eccentricity": 0.00468213,
        "meta_inclination": 98.9057,
        "meta_ra_of_asc_node": 0.0997,
        "meta_arg_of_pericenter": 37.2052,
        "meta_mean_anomaly": 16.4078,
        "meta_ephemeris_type": 0,
        "meta_classification_type": "U",
        "meta_norad_cat_id": 30016,
        "meta_element_set_no": 999,
        "meta_rev_at_epoch": 99472,
        "meta_bstar": 0.0020313278,
        "meta_mean_motion_dot": 0.00015092,
        "meta_mean_motion_ddot": 0,
        "tle_line1": "1 30016U 99025MR  25348.00233128  .00015092  00000+0  20313-2 0  9993",
        "tle_line2": "2 30016  98.9057   0.0997 0046821  37.2052  16.4078 14.78560204994729"
      },
      "geometry": {
        "type": "Point",
        "coordinates": [
          -176.64660342884392,
          15.443097943743107
        ]
      }
    },
    {
      "type": "Feature",
      "properties": {
        "norad_id": 30017,
        "name": "FENGYUN 1C DEB",
        "group": "fengyun-1c-debris",
        "lat": -2.1870448561539217,
        "lon": -146.93293839109643,
        "alt_km": 542.5917266362412,
        "timestamp": "2025-12-14T16:47:40.956826+00:00",
        "meta_object_name": "FENGYUN 1C DEB",
        "meta_object_id": "1999-025MS",
        "meta_epoch": "2025-12-13T13:40:22.467936",
        "meta_mean_motion": 14.61199532,
        "meta_eccentricity": 0.02175107,
        "meta_inclination": 98.7549,
        "meta_ra_of_asc_node": 32.2083,
        "meta_arg_of_pericenter": 172.5256,
        "meta_mean_anomaly": 187.9276,
        "meta_ephemeris_type": 0,
        "meta_classification_type": "U",
        "meta_norad_cat_id": 30017,
        "meta_element_set_no": 999,
        "meta_rev_at_epoch": 456,
        "meta_bstar": 0.00024671782,
        "meta_mean_motion_dot": 1.635e-05,
        "meta_mean_motion_ddot": 0,
        "tle_line1": "1 30017U 99025MS  25347.56970449  .00001635  00000+0  24672-3 0  9999",
        "tle_line2": "2 30017  98.7549  32.2083 0217510 172.5256 187.9276 14.61199532  4563"
      },
      "geometry": {
        "type": "Point",
        "coordinates": [
          -146.93293839109643,
          -2.1870448561539217
        ]
      }
    },
    {
      "type": "Feature",
      "properties": {
        "norad_id": 30018,
        "name": "FENGYUN 1C DEB",
        "group": "fengyun-1c-debris",
        "lat": -58.486431275073464,
        "lon": 86.051164072701,
        "alt_km": 686.6837152411917,
        "timestamp": "2025-12-14T16:47:40.956836+00:00",
        "meta_object_name": "FENGYUN 1C DEB",
        "meta_object_id": "1999-025MT",
        "meta_epoch": "2025-12-13T23:56:47.803200",
        "meta_mean_motion": 14.73200897,
        "meta_eccentricity": 0.01167252,
        "meta_inclination": 98.7559,
        "meta_ra_of_asc_node": 70.7356,
        "meta_arg_of_pericenter": 191.5208,
        "meta_mean_anomaly": 346.7803,
        "meta_ephemeris_type": 0,
        "meta_classification_type": "U",
        "meta_norad_cat_id": 30018,
        "meta_element_set_no": 999,
        "meta_rev_at_epoch": 455,
        "meta_bstar": 0.00092886785,
        "meta_mean_motion_dot": 6.62e-05,
        "meta_mean_motion_ddot": 0,
        "tle_line1": "1 30018U 99025MT  25347.99777550  .00006620  00000+0  92887-3 0  9997",
        "tle_line2": "2 30018  98.7559  70.7356 0116725 191.5208 346.7803 14.73200897  4559"
      },
      "geometry": {
        "type": "Point",
        "coordinates": [
          86.051164072701,
          -58.486431275073464
        ]
      }
    },
    {
      "type": "Feature",
      "properties": {
        "norad_id": 30020,
        "name": "FENGYUN 1C DEB",
        "group": "fengyun-1c-debris",
        "lat": -81.13939940288525,
        "lon": 80.01809554277398,
        "alt_km": 1005.9073791518131,
        "timestamp": "2025-12-14T16:47:40.956846+00:00",
        "meta_object_name": "FENGYUN 1C DEB",
        "meta_object_id": "1999-025MV",
        "meta_epoch": "2025-12-14T00:25:18.538752",
        "meta_mean_motion": 14.04468822,
        "meta_eccentricity": 0.01839997,
        "meta_inclination": 98.8472,
        "meta_ra_of_asc_node": 351.7968,
        "meta_arg_of_pericenter": 66.932,
        "meta_mean_anomaly": 356.9833,
        "meta_ephemeris_type": 0,
        "meta_classification_type": "U",
        "meta_norad_cat_id": 30020,
        "meta_element_set_no": 999,
        "meta_rev_at_epoch": 96676,
        "meta_bstar": 0.0006544571,
        "meta_mean_motion_dot": 1.172e-05,
        "meta_mean_motion_ddot": 0,
        "tle_line1": "1 30020U 99025MV  25348.01757568  .00001172  00000+0  65446-3 0  9999",
        "tle_line2": "2 30020  98.8472 351.7968 0183999  66.9320 356.9833 14.04468822966769"
      },
      "geometry": {
        "type": "Point",
        "coordinates": [
          80.01809554277398,
          -81.13939940288525
        ]
      }
    },
    {
      "type": "Feature",
      "properties": {
        "norad_id": 30021,
        "name": "FENGYUN 1C DEB",
        "group": "fengyun-1c-debris",
        "lat": 73.98036570860305,
        "lon": -52.62711827068463,
        "alt_km": 917.0564041038979,
        "timestamp": "2025-12-14T16:47:40.956856+00:00",
        "meta_object_name": "FENGYUN 1C DEB",
        "meta_object_id": "1999-025MW",
        "meta_epoch": "2025-12-13T23:37:27.018336",
        "meta_mean_motion": 14.04892976,
        "meta_eccentricity": 0.00719306,
        "meta_inclination": 98.8357,
        "meta_ra_of_asc_node": 339.4788,
        "meta_arg_of_pericenter": 283.559,
        "meta_mean_anomaly": 136.29,
        "meta_ephemeris_type": 0,
        "meta_classification_type": "U",
        "meta_norad_cat_id": 30021,
        "meta_element_set_no": 999,
        "meta_rev_at_epoch": 96949,
        "meta_bstar": 0.00025645452,
        "meta_mean_motion_dot": 3.78e-06,
        "meta_mean_motion_ddot": 0,
        "tle_line1": "1 30021U 99025MW  25347.98434049  .00000378  00000+0  25645-3 0  9995",
        "tle_line2": "2 30021  98.8357 339.4788 0071930 283.5590 136.2900 14.04892976969490"
      },
      "geometry": {
        "type": "Point",
        "coordinates": [
          -52.62711827068463,
          73.98036570860305
        ]
      }
    }
  ]
}